ONEWEB-0338             
1 49204U 21083U   23315.49075744  .00000012  00000+0 -23889-5 0  9995
2 49204  87.9167 103.3215 0001062  87.1904 272.9351 13.20771744111583
ONEWEB-0339             
1 49205U 21083V   23315.56333005 -.00000176  00000+0 -51566-3 0  9994
2 49205  87.8986 149.0098 0001445  90.8380 269.2915 13.13469210106361
ONEWEB-0340             
1 49206U 21083W   23315.60153298  .00000046  00000+0  82939-4 0  9997
2 49206  87.9161 164.1566 0001669  86.5726 273.5597 13.18686854104957
ONEWEB-0341             
1 49207U 21083X   23315.60995304  .00000034  00000+0  52746-4 0  9990
2 49207  87.9244 164.1477 0001288 113.6885 246.4383 13.18687553104977
ONEWEB-0342             
1 49208U 21083Y   23315.42130459  .00000095  00000+0  20073-3 0  9997
2 49208  87.9157 103.3640 0001317  89.5901 270.5383 13.20772531111544
ONEWEB-0343             
1 49209U 21083Z   23315.60574081  .00000072  00000+0  15113-3 0  9995
2 49209  87.9229 164.1740 0001012 125.8249 234.2977 13.18687395105024
ONEWEB-0344             
1 49210U 21083AA  23315.60458988  .00000385  00000+0  10196-2 0  9996
2 49210  87.8985 149.0083 0001772  89.4695 270.6637 13.13467795106370
ONEWEB-0345             
1 49211U 21083AB  23315.54640086  .00000240  00000+0  62302-3 0  9999
2 49211  87.8988 149.0055 0001861 106.4664 253.6670 13.13470240106375
